{"type": "FeatureCollection", "name": "maule-ADM1", "features": [{"type": "Feature", "properties": {"shapeName": "Regi\u00c3\u00b3n del Maule", "shapeISO": "CHL", "shapeID": "47653553B65340542415201", "shapeGroup": "CHL", "shapeType": "ADM1"}, "geometry": {"type": "Polygon", "coordinates": [[[-71.03531106599996, -36.47423598099995], [-71.02715278299996, -36.47166433799998], [-71.01939951499999, -36.473378064999935], [-71.00948446299994, -36.486798163999914], [-71.00434259399994, -36.48783122599995], [-70.99706689699994, -36.48681998299995], [-70.98933393099996, -36.49598338299998], [-70.98582861499992, -36.494221584999956], [-70.97948052499996, -36.4936648469999], [-70.97715233199996, -36.495353484], [-70.974785805, -36.502039206999925], [-70.95894996299998, -36.503503227999914], [-70.95380496999998, -36.50195894799995], [-70.95161440899992, -36.497118065999985], [-70.94792810099992, -36.49754058899995], [-70.94842369299997, -36.494544193999914], [-70.94451388899995, -36.491452598], [-70.93411951199994, -36.491700984999945], [-70.93218420599995, -36.487197162999976], [-70.92752181299991, -36.48424381799995], [-70.92915247499992, -36.477725122999985], [-70.92662149299994, -36.47424184699999], [-70.91588368699993, -36.47332644499993], [-70.90374437899996, -36.47455329599991], [-70.89432105299991, -36.47187313200003], [-70.88684069899996, -36.46197278399994], [-70.89432786199995, -36.45247914399994], [-70.89219874, -36.445283585999924], [-70.88650130599996, -36.438896288], [-70.88700161199995, -36.4358455239999], [-70.89022289399995, -36.435189641], [-70.89107968099995, -36.4240976519999], [-70.88754068499998, -36.41537421099994], [-70.88926876099995, -36.41088654899998], [-70.88920817199991, -36.40047509999998], [-70.88346030999995, -36.39638698599994], [-70.86442749, -36.397481578999916], [-70.865791824, -36.401144686999956], [-70.87004102699996, -36.404086007999965], [-70.869513409, -36.41020372599997], [-70.85969924899993, -36.41249304099994], [-70.84778918399994, -36.418488689999975], [-70.84512714199994, -36.41883417099996], [-70.845252584, -36.41648287299992], [-70.83585374999996, -36.414785206999966], [-70.83248008499997, -36.40562780099999], [-70.81741163099994, -36.39595112299994], [-70.80768648699996, -36.4028959029999], [-70.79426333399991, -36.41929667799995], [-70.79131081799994, -36.42751960899997], [-70.78860098800001, -36.42873870099994], [-70.77228232600001, -36.42838015499994], [-70.76217299199995, -36.421063642999954], [-70.75538371099998, -36.40882455699999], [-70.74653354, -36.40582472899994], [-70.74004982900001, -36.40789412199992], [-70.73523400999997, -36.41539146099995], [-70.73935407299999, -36.42417637899993], [-70.73891471999997, -36.429151836999935], [-70.712436323, -36.42689969399993], [-70.70747174499994, -36.417353197], [-70.70095230599998, -36.4102157789999], [-70.69578032899997, -36.409371695999965], [-70.69281133399991, -36.41036014099994], [-70.68847732299994, -36.407847756], [-70.68745654099996, -36.40057961299992], [-70.68063927099998, -36.39397816899994], [-70.67767835899994, -36.388721402999934], [-70.67937211599994, -36.38505765999993], [-70.67856113699997, -36.37768749899995], [-70.6813190359999, -36.37192568499999], [-70.68393237699996, -36.36999342699998], [-70.68781602899995, -36.36958607599994], [-70.69066845599997, -36.36086930499991], [-70.70122119899995, -36.3598805309999], [-70.70211173799999, -36.35113691899996], [-70.70773213599998, -36.349870691], [-70.71112346499991, -36.344843128999955], [-70.71159954699996, -36.33987499299994], [-70.70398730499993, -36.334963253999966], [-70.70109745799991, -36.32459217499993], [-70.70208752899995, -36.32117848300001], [-70.69000725399997, -36.31108459], [-70.68672028199997, -36.31068175099996], [-70.68368738599995, -36.304769049999955], [-70.68495038499998, -36.30095959399998], [-70.68824735699994, -36.30026714699997], [-70.68406317499995, -36.28887504899991], [-70.685449638, -36.283730932], [-70.69317688599995, -36.279671963999974], [-70.70316144399999, -36.27974356299995], [-70.70558020299993, -36.272048802000015], [-70.69141765099997, -36.26125556699995], [-70.68873361899993, -36.25674410999997], [-70.68096705899993, -36.255944611], [-70.67794038299996, -36.249777046999945], [-70.672686534, -36.24903465699998], [-70.66591218299995, -36.24280792400001], [-70.65515466599999, -36.24063991799996], [-70.6393362119999, -36.243260725], [-70.631783303, -36.23856147299993], [-70.62451554699994, -36.22697364199994], [-70.63197686200002, -36.21620905699994], [-70.62743231699996, -36.212390527999915], [-70.61328745699996, -36.21012704699996], [-70.61179015199997, -36.20735314699995], [-70.60724522999989, -36.207145553], [-70.60495755599996, -36.19615351499992], [-70.59405010699996, -36.18947198699989], [-70.586112225, -36.18924356], [-70.583028444, -36.182333603999986], [-70.57104938399996, -36.17500229999993], [-70.57127054899998, -36.1702014809999], [-70.57503345500001, -36.16337405999997], [-70.57309181499994, -36.15783467499993], [-70.57903094999992, -36.156064355999916], [-70.58284585499999, -36.14866381699991], [-70.58197280799996, -36.143721472999985], [-70.57834016299996, -36.139813287], [-70.57223211799996, -36.13634087099993], [-70.5704516549999, -36.133312595999925], [-70.56688004699997, -36.13278705599996], [-70.55865621499996, -36.13885639099996], [-70.55243442799996, -36.13852344199995], [-70.54482381899996, -36.142644195999935], [-70.53585800899994, -36.14167337699999], [-70.53054705199997, -36.14315815899991], [-70.523465775, -36.147155654], [-70.52266627799993, -36.15200975499991], [-70.51855456799998, -36.15183843399994], [-70.51004561599993, -36.156635426], [-70.50747579799993, -36.16177506199992], [-70.50730447699996, -36.16754287599993], [-70.49879552299998, -36.17028401499998], [-70.49244780499995, -36.17748763399995], [-70.48864942399992, -36.17833386599998], [-70.48172051200002, -36.17479547299996], [-70.46967711199991, -36.17192157799994], [-70.46047668399991, -36.17313936799998], [-70.45579390599997, -36.171311941999946], [-70.44831287999996, -36.17251118999996], [-70.444721626, -36.17009662499993], [-70.44214531599991, -36.16360248899995], [-70.42095438599992, -36.156037297], [-70.42135834499996, -36.14315815899991], [-70.41781770700001, -36.137675881], [-70.41861720699998, -36.13019485699998], [-70.42229288, -36.125241365999926], [-70.4200448839999, -36.11511859099992], [-70.41593317399995, -36.112091915999954], [-70.41479103399996, -36.10855127799992], [-70.41541920999998, -36.10461089099995], [-70.42484187699996, -36.099699683000026], [-70.42573132599992, -36.09767848199994], [-70.42368256899996, -36.09188548999998], [-70.418331672, -36.08936330499992], [-70.417475065, -36.0755433959999], [-70.41196216599994, -36.06025591599995], [-70.40792344399998, -36.053741912999925], [-70.40239879999993, -36.052186605999935], [-70.39480355999997, -36.05487063799997], [-70.39251927699998, -36.05412824599992], [-70.38726542699995, -36.05087314399998], [-70.3866004339999, -36.047182549999974], [-70.37730056499994, -36.045979659999915], [-70.37127544999996, -36.04344922499998], [-70.36921959599994, -36.03825248199997], [-70.37064727099994, -36.03277020399996], [-70.37601428600001, -36.031993709999924], [-70.37679110199997, -36.02702848599997], [-70.38074, -36.02485], [-70.38209970000001, -35.99979454699994], [-70.37479320099996, -35.99478144099993], [-70.37977521999997, -35.98976390799991], [-70.38829805599994, -35.985907084], [-70.39349136000003, -35.98170566799992], [-70.40397949399997, -35.98027549399998], [-70.40680510299991, -35.981257018999926], [-70.41846844999993, -35.97765169599996], [-70.42237415799997, -35.97321377999994], [-70.42202827599996, -35.97063572399997], [-70.41683055799996, -35.965137569999975], [-70.41722385699998, -35.9618100289999], [-70.4130545479999, -35.95761484999998], [-70.40770543099998, -35.95623678899991], [-70.40520284099995, -35.95330665199994], [-70.39177731799995, -35.952058456999964], [-70.386851834, -35.93966622299993], [-70.37990296999997, -35.93778494899989], [-70.37628617999994, -35.93129485799997], [-70.3650487309999, -35.92500595599992], [-70.36921815899991, -35.92272116999989], [-70.38630241599994, -35.92409814999995], [-70.40648493799998, -35.9221835179999], [-70.412174522, -35.91845924599995], [-70.423078586, -35.915258585999894], [-70.425719208, -35.905063004999896], [-70.42324354199997, -35.898568013999935], [-70.42327106799993, -35.890984858999914], [-70.41937373299996, -35.88502963299993], [-70.4212697569999, -35.87634071599999], [-70.405959249, -35.86735123899996], [-70.40025244699999, -35.86719316699994], [-70.39076131099992, -35.87044729699998], [-70.38401197199997, -35.86894087999995], [-70.37946668399994, -35.86487347199994], [-70.38008702699992, -35.85654451299993], [-70.37789986899998, -35.849856277999976], [-70.36944131799999, -35.841572942999925], [-70.36171947499994, -35.84123585399992], [-70.35735365599994, -35.84285785199992], [-70.35013675099994, -35.83675215499993], [-70.34706362599995, -35.83714972099996], [-70.330966604, -35.82874791899997], [-70.32745156399994, -35.82214047899994], [-70.322811615, -35.820088194999954], [-70.31627177099996, -35.819654143000015], [-70.31174712199996, -35.81323237199999], [-70.32374679299991, -35.80987473499991], [-70.33708838099997, -35.795380465999955], [-70.34056834299997, -35.79600507499994], [-70.34703155499996, -35.80097219999996], [-70.35785810199994, -35.80132911899992], [-70.36264599699996, -35.79460423999994], [-70.37090490899993, -35.78957058699992], [-70.37655471699996, -35.7888339749999], [-70.37930340199992, -35.786906082], [-70.37691957699995, -35.78404491899996], [-70.37590036499991, -35.77764753299991], [-70.37998589999991, -35.76687452299991], [-70.37469397800001, -35.76434468099994], [-70.37122948399997, -35.75783637899994], [-70.3584717649999, -35.75439508199996], [-70.35818622999992, -35.749458177999955], [-70.36154126999995, -35.74737376899997], [-70.36194967999998, -35.742840875], [-70.36976944499996, -35.73700740999997], [-70.36745195299997, -35.73014353799995], [-70.36935066199996, -35.724943066999984], [-70.36825134899993, -35.72191353799997], [-70.37320776599996, -35.71692083299996], [-70.37227977699993, -35.71116872399991], [-70.37553345199993, -35.70427209399993], [-70.37455787399995, -35.7002924449999], [-70.37916711299994, -35.69946619399993], [-70.38399911499997, -35.69646548199999], [-70.38733438699997, -35.691148970000015], [-70.38612086399992, -35.68790814399992], [-70.3950271149999, -35.688719315999975], [-70.39848681499998, -35.68638558899997], [-70.405927989, -35.67337339799999], [-70.40255797799995, -35.667484323999886], [-70.39772287999993, -35.66533057299995], [-70.39792630699998, -35.662567633999956], [-70.408595454, -35.65613453999997], [-70.408221994, -35.649898105], [-70.41013687999998, -35.646249231999974], [-70.42301719199997, -35.64074547299996], [-70.41837525999995, -35.62943700399999], [-70.41115850399996, -35.63000050999999], [-70.40178723599996, -35.62696098699993], [-70.39743567699998, -35.62205691699998], [-70.39713638999999, -35.6171061969999], [-70.39187884700002, -35.61035449599992], [-70.38570177099997, -35.60830491599998], [-70.38465654399991, -35.60549253899998], [-70.39126292199994, -35.59218920399998], [-70.39422197599998, -35.5892522409999], [-70.39874295199996, -35.58768179699999], [-70.39660143799996, -35.582910976999955], [-70.39906417999998, -35.574080321999915], [-70.40227645199994, -35.5704873359999], [-70.40370412899993, -35.56327756899995], [-70.40989192399996, -35.56022458299995], [-70.40756376999998, -35.55601654699994], [-70.41027100799998, -35.549070727999975], [-70.40482372199993, -35.54598440099997], [-70.40724666799994, -35.54267770899993], [-70.40834757899991, -35.5349452469999], [-70.41349992399998, -35.52843323799995], [-70.41177243599995, -35.52564641299993], [-70.40848302700002, -35.52509830699997], [-70.40415006899997, -35.527283481999945], [-70.39797028999989, -35.52527639099996], [-70.3949734129999, -35.52184154799998], [-70.394641743, -35.51843188699995], [-70.38952114299997, -35.516414104999974], [-70.3682036229999, -35.52177348299995], [-70.36753394799992, -35.51962413999992], [-70.38015931099996, -35.51430371999989], [-70.385144983, -35.50967389699997], [-70.39543933799999, -35.48619399699995], [-70.39698122999994, -35.48579424799992], [-70.40239880099993, -35.490024666999915], [-70.409480076, -35.490195986999964], [-70.41620410199991, -35.48817894399996], [-70.43010396099996, -35.47595422499994], [-70.44305584399993, -35.468102003999945], [-70.44674876699995, -35.463445874999906], [-70.44427412699993, -35.45995282499999], [-70.44642198699992, -35.45576656], [-70.44562248799994, -35.45080585999998], [-70.4400831029999, -35.44859772199989], [-70.43644728799998, -35.44876904199994], [-70.43227589199991, -35.445274598999916], [-70.43522995499998, -35.44251581799991], [-70.43487288499993, -35.43674430999995], [-70.43900282699997, -35.434294305], [-70.44555395899995, -35.4338379239999], [-70.45294932499998, -35.427163534999934], [-70.45019741299993, -35.4215532979999], [-70.44456886399998, -35.42134432499993], [-70.43849046499994, -35.413101450999946], [-70.43951568999995, -35.41134661999996], [-70.447095852, -35.40850641999998], [-70.44991313299994, -35.40380460399997], [-70.45038902499996, -35.39555453799992], [-70.45284462899994, -35.39195869599994], [-70.44734331399994, -35.386838095], [-70.44182891400003, -35.384681828999945], [-70.44002171299998, -35.38120186699996], [-70.43513477699993, -35.37938847999993], [-70.429524655, -35.373469149], [-70.42477985899998, -35.37131294799994], [-70.42076608899998, -35.35866237899994], [-70.41798578399997, -35.35531827899992], [-70.41995857499995, -35.34853412699992], [-70.42828000899996, -35.343507801999976], [-70.43137546599992, -35.33585897699994], [-70.43577365099995, -35.330358175999905], [-70.43691484999995, -35.32375608599996], [-70.43198460899995, -35.31863738999992], [-70.44795614199992, -35.31537295], [-70.46095454499994, -35.31995180499996], [-70.4645332549999, -35.31781980699995], [-70.46634211799991, -35.31350140599996], [-70.46914867099997, -35.31330277999996], [-70.47702193500001, -35.31632550599995], [-70.48419838999996, -35.316249362999955], [-70.48771047399994, -35.31997274299992], [-70.49305569599998, -35.321690713999956], [-70.50369616899994, -35.320462913999975], [-70.50989957800002, -35.312328984999944], [-70.51369485399997, -35.30982255699995], [-70.538136572, -35.30683952599996], [-70.55164294299993, -35.30036877299996], [-70.56500630100001, -35.30023968299994], [-70.57433784499992, -35.287119048999955], [-70.57605105799992, -35.27840070399997], [-70.581896918, -35.273510436], [-70.58263142999994, -35.27008149599989], [-70.57735796699995, -35.26543850699995], [-70.57906291099991, -35.25770598799991], [-70.5730762549999, -35.25725110299993], [-70.57105545899995, -35.25266675399996], [-70.57235631599993, -35.24947202399996], [-70.566629184, -35.245719678999905], [-70.5650715419999, -35.242638874], [-70.563885666, -35.23501186699998], [-70.56785222799994, -35.22346124999996], [-70.55785420999995, -35.2194608999999], [-70.55211646199993, -35.210547361999936], [-70.5482453, -35.20856257099994], [-70.54337121199995, -35.20295894], [-70.52795058, -35.19649530299998], [-70.52691183499994, -35.19426275099991], [-70.52453989999998, -35.19563492299993], [-70.52549973499998, -35.20235472699993], [-70.51800443299994, -35.20648903899997], [-70.51568445799992, -35.205804945999944], [-70.51436266899998, -35.202604569], [-70.50435941200001, -35.201195927999976], [-70.49647102599995, -35.20349924599995], [-70.48647728699996, -35.20235710599995], [-70.47927037699998, -35.20414645999995], [-70.47230331499995, -35.203860924999944], [-70.471203605, -35.201834004999924], [-70.45782143899996, -35.195097846], [-70.45513740699992, -35.18966791499996], [-70.45256758999992, -35.19100517199993], [-70.4500081699999, -35.19589386499995], [-70.43629767099995, -35.19343360999996], [-70.42795888299995, -35.189200084999975], [-70.421189313, -35.18349147199997], [-70.41591532499999, -35.18277271299992], [-70.40879121799993, -35.179260627999945], [-70.40248088799997, -35.18010295899992], [-70.39923435099993, -35.17581278999995], [-70.39083781099994, -35.172921252999984], [-70.387972361, -35.169453441999934], [-70.37865677099998, -35.17335100099992], [-70.37445940299997, -35.16978180899993], [-70.376572364, -35.166319692999906], [-70.37049950399998, -35.15353437299996], [-70.37201283999995, -35.150533397], [-70.36135808999998, -35.134706173999966], [-70.36776217199997, -35.124602506999935], [-70.37023205199995, -35.111824801], [-70.36626311199993, -35.10938347399997], [-70.367205379, -35.107457537999956], [-70.36372184799998, -35.104859167], [-70.362065742, -35.10110580399994], [-70.35763994599992, -35.09886577999997], [-70.36505865, -35.09339564899999], [-70.37019828699991, -35.09330046900001], [-70.37343004799997, -35.086450703999915], [-70.37418785099996, -35.081521543999926], [-70.37123142599995, -35.07461954799996], [-70.37147413199997, -35.06662741499993], [-70.373344388, -35.061856119999945], [-70.37261627199996, -35.058331185999975], [-70.37524319699997, -35.05697489299993], [-70.37683077299997, -35.05015488199999], [-70.37280472599993, -35.041139104], [-70.3668210989999, -35.036423255999985], [-70.36042248800001, -35.03475453399994], [-70.36189420499993, -35.03306646899998], [-70.36132192299992, -35.020601975999924], [-70.36497007799997, -35.01965897899997], [-70.36653294199996, -35.01668157599991], [-70.36444853399998, -35.01047118199996], [-70.36501960499999, -35.00528871699997], [-70.377333226, -34.99799099899994], [-70.38102428699995, -34.99977746599996], [-70.38970732199994, -34.998689218999985], [-70.39498688599996, -34.991573740999925], [-70.41526663999997, -34.98365469799991], [-70.42908214999997, -34.988666516], [-70.46548975300001, -34.990624572999906], [-70.47032063799995, -34.99375882999989], [-70.47774171999998, -34.99415225699994], [-70.48044052799999, -34.985594202999984], [-70.48589423499995, -34.982351924999946], [-70.48727411299998, -34.97587456799994], [-70.499581414, -34.9708085139999], [-70.51076119499999, -34.97205439299995], [-70.51651165799998, -34.96769078499995], [-70.52574966199997, -34.96504504799998], [-70.52372667199992, -34.951632526999916], [-70.53555079499992, -34.951483594999935], [-70.53823112299992, -34.95029683199998], [-70.54030567799997, -34.94346627099996], [-70.53914495099994, -34.93927629799994], [-70.54106619699992, -34.937485592], [-70.54132502000002, -34.933922140999954], [-70.54719678099994, -34.93485349599992], [-70.55436513699992, -34.939471359], [-70.56832594599996, -34.939723764999925], [-70.57089013399994, -34.94479973399998], [-70.56813374199996, -34.952574088999924], [-70.57115410999992, -34.95503704599996], [-70.58345828299996, -34.957422794999914], [-70.586124157, -34.961699893999956], [-70.59832313999993, -34.95686945099996], [-70.61489221699995, -34.960800863], [-70.61552223399994, -34.96767905599996], [-70.61761886799997, -34.970663951999924], [-70.61597673799999, -34.97608977199998], [-70.61826997000001, -34.97745789799993], [-70.61924801500003, -34.980551497999926], [-70.61855414599998, -34.98579002999993], [-70.62228185599996, -34.98764713299994], [-70.627049451, -34.982885997], [-70.63342708600001, -34.98090707299995], [-70.64095210799994, -34.975048662999896], [-70.64555631999994, -34.974267012999974], [-70.648895484, -34.970884164999944], [-70.661509617, -34.96611415199989], [-70.66647440400001, -34.96234510699996], [-70.66858312799997, -34.94640221799996], [-70.67332743799993, -34.94075056499997], [-70.67443459199997, -34.936583300999956], [-70.682988231, -34.92899141699992], [-70.68536370799998, -34.92412695899996], [-70.69093230999995, -34.92397342399995], [-70.69478880299991, -34.9257836259999], [-70.70254952999997, -34.91747045499996], [-70.710481508, -34.91547182899997], [-70.714607783, -34.902353578], [-70.72342157899996, -34.895509283999914], [-70.73831727199992, -34.89104616099994], [-70.74288098299996, -34.885593791999916], [-70.74911848600001, -34.884156381], [-70.75109612099996, -34.875059259999944], [-70.75860436999992, -34.87203796099989], [-70.76069470899994, -34.86644225399991], [-70.77209755799998, -34.85866918299998], [-70.77788609199993, -34.85769775699998], [-70.78908462599996, -34.86023601699995], [-70.79656314999994, -34.85315697299998], [-70.803322253, -34.8544119429999], [-70.80953854199998, -34.85231923799994], [-70.81713601199996, -34.85965866099996], [-70.81820656, -34.862755216000025], [-70.81561853599999, -34.86614336399996], [-70.81827, -34.86979], [-70.82170879499995, -34.87131761899998], [-70.82560553899995, -34.868446418], [-70.83316083199998, -34.86745139299992], [-70.84579729099997, -34.860130253], [-70.853889383, -34.859684431999966], [-70.857277159, -34.855213291999945], [-70.86385382199997, -34.852840595], [-70.87380221399994, -34.85267859299992], [-70.88330867199994, -34.850147028999984], [-70.89154835100001, -34.85126326799997], [-70.8996354879999, -34.855875126999905], [-70.90618168199993, -34.857535219999946], [-70.90897383099994, -34.856693590999946], [-70.92565317699993, -34.858941936], [-70.94715125599994, -34.86881837199996], [-70.94830838199994, -34.869184924], [-70.95116047399992, -34.87041240399995], [-70.95152928999998, -34.87084682200002], [-70.952331451, -34.871484255], [-70.95305929700001, -34.871699672999966], [-70.95821029399997, -34.87168326799994], [-70.95865243499995, -34.871380124], [-70.96829034499999, -34.864657118999915], [-70.96741518199997, -34.86022773399998], [-70.9795916309999, -34.846697124999906], [-70.98175065099993, -34.839435825999956], [-70.98527545999998, -34.83973439399997], [-70.98760220899995, -34.83701425599997], [-70.99720029199997, -34.833285774999936], [-71.0011239039999, -34.82743596599998], [-71.009256604, -34.824340793999944], [-71.01273122999999, -34.82589076499994], [-71.01668212999995, -34.824987627], [-71.01814443399996, -34.81882836599992], [-71.0231084019999, -34.815642207999915], [-71.023822383, -34.80982354499996], [-71.03001872999995, -34.80650677799997], [-71.03496108699997, -34.80046852599996], [-71.038948192, -34.80046225499998], [-71.04539047299994, -34.796574635999924], [-71.04686365699999, -34.79247215099994], [-71.048047862, -34.79233530699999], [-71.05265303399992, -34.80547280099995], [-71.069707184, -34.821309158999924], [-71.07846857299992, -34.824642349999934], [-71.09871989399997, -34.82813150099997], [-71.134913753, -34.7863905519999], [-71.13812184299996, -34.790345451999926], [-71.142988276, -34.78947726199995], [-71.15017459499995, -34.79398495299997], [-71.14925007799994, -34.796203796999976], [-71.1536810229999, -34.79968687199995], [-71.157376894, -34.79908751299992], [-71.16744113499996, -34.80158279399997], [-71.17612182099994, -34.801999891000015], [-71.18050606899996, -34.806069196999914], [-71.184597546, -34.8035807439999], [-71.18914038, -34.80439906099993], [-71.19436807499991, -34.82184042599992], [-71.19901160599998, -34.824706866999946], [-71.20077817299995, -34.82768150299995], [-71.21335375999996, -34.835341045999904], [-71.21581322899989, -34.833403827000026], [-71.22000928299997, -34.83430488799997], [-71.23112523199991, -34.825907102999956], [-71.24468867799995, -34.827647758999916], [-71.25602110899995, -34.82438023099992], [-71.26109193300002, -34.82435842799998], [-71.26327645899994, -34.822127534999964], [-71.26227858499996, -34.81514551399994], [-71.26629282899992, -34.79908936899999], [-71.26849225499993, -34.797044813999925], [-71.27636388900001, -34.79518031999993], [-71.27886908299999, -34.791650809999936], [-71.29388288499995, -34.79714103099998], [-71.29816238099991, -34.79505671299992], [-71.30221363799993, -34.795170870999954], [-71.308925808, -34.801531576999906], [-71.31420323999994, -34.80205149599993], [-71.31204873999994, -34.805670382999956], [-71.31211092699994, -34.809962667], [-71.31621271999994, -34.81599084999989], [-71.32357869500002, -34.82081170199998], [-71.33086478899997, -34.82277127599993], [-71.33551596799998, -34.827691011999946], [-71.341801404, -34.831052584], [-71.34717349399996, -34.83075816699997], [-71.357069128, -34.82611335699997], [-71.36013435599996, -34.832044622999916], [-71.36838158899995, -34.83237574399996], [-71.37444702399998, -34.83436211399991], [-71.38327471899996, -34.850115315000025], [-71.37773438999994, -34.85523065199996], [-71.38093977100003, -34.85797997999998], [-71.386913098, -34.86889448499995], [-71.38690339799999, -34.886569347], [-71.37703672399994, -34.89554310899996], [-71.36917947299997, -34.89513717599995], [-71.36563504399999, -34.90434845599995], [-71.36531576299996, -34.91274404599996], [-71.38497635699997, -34.907732308999975], [-71.38956726499995, -34.90099154800002], [-71.39753448399995, -34.89439879199996], [-71.40054427399994, -34.894434696], [-71.40451592100001, -34.89769319099996], [-71.40859811699991, -34.89680189899993], [-71.41738990599994, -34.904588510999915], [-71.42097415099994, -34.90446949499993], [-71.42258554899995, -34.902196787], [-71.420351195, -34.89704500399998], [-71.42284885099997, -34.89146524299998], [-71.42563876299997, -34.889931775999926], [-71.42564091899997, -34.8860702329999], [-71.43450575299991, -34.884558107999936], [-71.43853353899993, -34.879900840999966], [-71.44553767599992, -34.88200064799998], [-71.45149062299997, -34.88764893499996], [-71.45290176199993, -34.894246965999926], [-71.45729252399997, -34.895969736], [-71.46060092199997, -34.900193213999955], [-71.464722303, -34.90063398499992], [-71.47239246199993, -34.89730264199997], [-71.47770443499998, -34.89681276799995], [-71.48311007699996, -34.89155946899996], [-71.48813434799999, -34.89317282499995], [-71.4904475179999, -34.89121859999991], [-71.49332392099996, -34.892589810999944], [-71.49619924499991, -34.892006297999984], [-71.49972483799993, -34.889979277999956], [-71.50572766599996, -34.8818945429999], [-71.510947475, -34.880006832999946], [-71.513842396, -34.87622608899994], [-71.52669452599997, -34.87629345399992], [-71.528797797, -34.873149071999904], [-71.53505226099995, -34.869488778999916], [-71.54219583999993, -34.87592241799995], [-71.54665428899997, -34.87597224399999], [-71.55291673499997, -34.871751595], [-71.56830621399999, -34.87657187099995], [-71.57246162599992, -34.87379595599995], [-71.57340407, -34.86750002499994], [-71.57694186299997, -34.86729685699992], [-71.58703539399997, -34.87570785199996], [-71.58892870999995, -34.87956330699993], [-71.59989941699995, -34.88334428099995], [-71.60784677499998, -34.882933125999955], [-71.609540582, -34.88045741400001], [-71.60669186699991, -34.873159544999965], [-71.61380513299997, -34.866958627], [-71.62089493499994, -34.86428202999996], [-71.623411946, -34.86522869299995], [-71.623556831, -34.86250841899994], [-71.62515084699999, -34.86171132099998], [-71.63494363699996, -34.86206909899992], [-71.63916222999995, -34.860069469999935], [-71.64248603399992, -34.860855837999985], [-71.646057518, -34.858536188999906], [-71.6539053079999, -34.85784039599997], [-71.65622932399998, -34.85500219799998], [-71.65922166299995, -34.85501407599998], [-71.66265619199999, -34.85620716199993], [-71.667393556, -34.871022985999936], [-71.67310137399994, -34.877309973999914], [-71.67936372900002, -34.880007336999896], [-71.68190208999991, -34.883942202999954], [-71.68276263699997, -34.89063581100001], [-71.68866943999993, -34.8970859729999], [-71.68129922899993, -34.895843860999975], [-71.67410236999999, -34.90217565999994], [-71.667702442, -34.90377031499999], [-71.66741616399993, -34.9091387239999], [-71.67491085700001, -34.92364310799998], [-71.69716969399998, -34.93400217899992], [-71.70085446199995, -34.933612544], [-71.70964615099996, -34.937321320999914], [-71.71083442499996, -34.93345142499991], [-71.70962906699997, -34.927796604], [-71.71457226999996, -34.92148153399992], [-71.715082552, -34.91620895399994], [-71.72356598599998, -34.911821377999914], [-71.72692559599997, -34.91360630899989], [-71.72853153299997, -34.909468339999904], [-71.727237193, -34.90377318399996], [-71.73255235699995, -34.89993321599994], [-71.73270645799991, -34.89778166], [-71.74371972499996, -34.88912276699996], [-71.75481640799991, -34.884484782999905], [-71.759716747, -34.87412075199992], [-71.76376291199995, -34.872100676999935], [-71.771854288, -34.86142254199998], [-71.77513833399993, -34.85415401199997], [-71.774857802, -34.84575648499997], [-71.789774431, -34.835159656], [-71.79529884599995, -34.82715762199995], [-71.802109579, -34.82872282099996], [-71.80974349399997, -34.837180053999916], [-71.81796570099993, -34.84082998999993], [-71.82846626400001, -34.835652002999964], [-71.84252360899998, -34.83656098899995], [-71.84452583999999, -34.834224634], [-71.84645672199997, -34.82478293899993], [-71.85255688699995, -34.82220733499999], [-71.85530608299996, -34.82309674599995], [-71.86513920299998, -34.818095581999955], [-71.88520361099994, -34.81795497799996], [-71.8927302179999, -34.814687835], [-71.89927293599999, -34.816747999000015], [-71.91347508599993, -34.81518739699994], [-71.93019960199995, -34.80400388399991], [-71.93795693099999, -34.79284632899991], [-71.94465411199998, -34.78857918699998], [-71.94260486499998, -34.769349641999916], [-71.952884422, -34.764118544], [-71.95317144099994, -34.757302272999915], [-71.95740534099996, -34.75610623999999], [-71.96091445999996, -34.752100847999955], [-71.965269059, -34.750058223999886], [-71.97281999199996, -34.75455461399994], [-71.97626725099998, -34.75442514599998], [-71.98734685699993, -34.747144191999915], [-71.98838069899995, -34.743907937999936], [-71.99731093399996, -34.74050785599998], [-71.99455831499994, -34.73244704499996], [-71.99866289999991, -34.72801579899996], [-71.99446407699995, -34.71649979199996], [-72.00177832599994, -34.71323836099994], [-72.00503166799999, -34.70497812199993], [-72.02091411599997, -34.698622993], [-72.03120427499996, -34.701052427999926], [-72.03323267399993, -34.70036882299994], [-72.03621044799993, -34.696450750999944], [-72.03428600599996, -34.68760805299998], [-72.03600287199998, -34.68509405299998], [-72.03968820099992, -34.684626206], [-72.04521987199993, -34.6872099509999], [-72.05626088899999, -34.68704754299996], [-72.059248581, -34.68761558199998], [-72.06135144099991, -34.69208209099997], [-72.065847016, -34.696071294], [-72.06497169199996, -34.69857802300001], [-72.06675193099991, -34.70550109399995], [-72.06868370899996, -34.706929690999935], [-72.06717631500003, -34.709291841999985], [-72.06898007299996, -34.71295454899999], [-72.06777597499999, -34.713556962], [-72.06943308699996, -34.716506573999894], [-72.06819061499993, -34.719952062999965], [-72.07020363799995, -34.7237395879999], [-72.07010306399998, -34.729571], [-72.07633296999995, -34.74508319899992], [-72.08246332699994, -34.753405886999936], [-72.08782358299997, -34.75349823999994], [-72.09121607299991, -34.755198207], [-72.10055749099993, -34.766816507999934], [-72.10668734699998, -34.77921706799994], [-72.11151443199995, -34.781504103999985], [-72.11108254799993, -34.782760367], [-72.11497250199992, -34.78489566299994], [-72.11455856099994, -34.786503178], [-72.11804067599994, -34.787766721], [-72.12334206199998, -34.794858599999955], [-72.12622301699997, -34.794473772999915], [-72.12820747299995, -34.80277743699996], [-72.13481975799992, -34.80897670299996], [-72.13452851699998, -34.81161375799993], [-72.13668885500003, -34.813248372], [-72.13595621599998, -34.81505523199993], [-72.13819854099998, -34.81953733999997], [-72.142335911, -34.81986855099993], [-72.14449801399992, -34.82237748999995], [-72.14333070599997, -34.82295795499992], [-72.14569297699994, -34.82955879799994], [-72.14425071299998, -34.83119400399997], [-72.14512336899998, -34.85041462799992], [-72.15029248799992, -34.86754924699993], [-72.16242406999996, -34.883804037999894], [-72.17021655599999, -34.886415696999975], [-72.17967662799997, -34.894965344999946], [-72.18240713399993, -34.91517893599998], [-72.18223795099996, -34.93553639199993], [-72.18687824999995, -34.943648142], [-72.18685027199994, -34.964026137999966], [-72.18473664699994, -34.971863953999915], [-72.1869698529999, -34.97910682599994], [-72.1857032579999, -35.015000240999974], [-72.18829191599994, -35.066678010999944], [-72.1931680659999, -35.08759387299992], [-72.20384901099999, -35.11032068699998], [-72.20898253599992, -35.11631324999993], [-72.2260469249999, -35.12977485499998], [-72.27478185599992, -35.150821101], [-72.32248527099995, -35.17801511499992], [-72.360726465, -35.202329529999886], [-72.38430184299992, -35.22226181799992], [-72.39807224699993, -35.241335788], [-72.40286191399993, -35.252975568999936], [-72.40542583699997, -35.271554220999974], [-72.403414523, -35.30120489399995], [-72.40881286499999, -35.31916589399995], [-72.41131435899993, -35.31949235299996], [-72.41686441499996, -35.315731962999955], [-72.42157588799996, -35.32127515999994], [-72.42550518599992, -35.322083571999954], [-72.42540623799991, -35.32474165199997], [-72.43589126299995, -35.32985045299991], [-72.43599832499993, -35.33706600599989], [-72.43862023699998, -35.33836924899998], [-72.44003259599995, -35.348218152999976], [-72.44597927699994, -35.35186983399996], [-72.45141896899997, -35.35310534399996], [-72.45557738199996, -35.35752962500001], [-72.45751475299994, -35.35539034099993], [-72.45566993499997, -35.35760311099996], [-72.4567209799999, -35.35841219999993], [-72.460158457, -35.354539683999974], [-72.45675480799994, -35.35850325800001], [-72.45828527600001, -35.35978559199997], [-72.46460227799999, -35.358667674999936], [-72.46890957699995, -35.36133760799996], [-72.47207918199993, -35.36144701799995], [-72.47964199099995, -35.3768215009999], [-72.48201259299998, -35.376938509], [-72.48706223399991, -35.383956485999974], [-72.49301941499996, -35.38527404999992], [-72.49502596699998, -35.38905028699999], [-72.49908463099997, -35.39091577499998], [-72.49100896099998, -35.41681429799992], [-72.48759148100001, -35.434454057999986], [-72.48669812199998, -35.454016025999934], [-72.48828769399996, -35.46282154999994], [-72.49779444199999, -35.47161082099993], [-72.50338235099994, -35.47470589099995], [-72.51045608299992, -35.47624565799998], [-72.51075840199996, -35.480028087999955], [-72.51329214, -35.481879281], [-72.51511304099995, -35.48798318699993], [-72.52789800399995, -35.50288513299995], [-72.53564376999994, -35.509334256999935], [-72.54361041399997, -35.511984233], [-72.54831647299999, -35.51210670399992], [-72.54995108899996, -35.5108226309999], [-72.55937706099996, -35.513246936999934], [-72.57877753499996, -35.536481896999945], [-72.58464191799996, -35.53756162299993], [-72.59950708199997, -35.55046717199997], [-72.61256931099992, -35.55357193899991], [-72.61852119199997, -35.56103067499994], [-72.62095128099995, -35.570743943], [-72.62040046699994, -35.5814097329999], [-72.62824965999995, -35.58723814199996], [-72.63103064700002, -35.59150873799999], [-72.63104001099998, -35.59622160899994], [-72.63800798399993, -35.601734120999964], [-72.60689523799994, -35.652075837999966], [-72.59088929199996, -35.68172858199994], [-72.57972827199993, -35.70949782099995], [-72.56839465699991, -35.747517550999966], [-72.56427611899994, -35.75540618399995], [-72.56256586300002, -35.773728267999985], [-72.56657658099995, -35.794577765999975], [-72.57105216499998, -35.80434484799995], [-72.57952524499993, -35.814859744999985], [-72.5954851499999, -35.81760383499993], [-72.60000744799999, -35.821739972999936], [-72.60775020799997, -35.82348073199991], [-72.60985162099993, -35.82575012099991], [-72.613791922, -35.82643832499993], [-72.61963544299996, -35.83001328099995], [-72.63140726999991, -35.84154279499992], [-72.63704451199996, -35.84282378799995], [-72.63756185899996, -35.84440060999994], [-72.63921378299995, -35.84156446399993], [-72.64227746799995, -35.84515416299994], [-72.64894689399995, -35.84656621199998], [-72.65331047499996, -35.851161506999965], [-72.65647353899992, -35.860886254], [-72.66217266699994, -35.87004434499994], [-72.66776979699995, -35.87345493699996], [-72.67081405499994, -35.87294580899994], [-72.67407436599996, -35.87682614600001], [-72.67845264199994, -35.878182681999895], [-72.68385519, -35.88436682699998], [-72.689546551, -35.90929424799996], [-72.69300265499997, -35.915475137999955], [-72.69855078099992, -35.91767367299997], [-72.70749728399996, -35.92678912099994], [-72.71637109299992, -35.930616239999964], [-72.720458675, -35.934935620999944], [-72.72762109599994, -35.93592513299993], [-72.73105418199995, -35.93944771499997], [-72.7337296859999, -35.93893924599992], [-72.73639218600002, -35.94050554299993], [-72.73767354699999, -35.94318626299995], [-72.75317202799991, -35.956542730999914], [-72.75972326799999, -35.95567021999993], [-72.76533682099993, -35.960689912999946], [-72.76878308799998, -35.96211921499999], [-72.77087684899993, -35.96095569499991], [-72.77309923499996, -35.96640087799996], [-72.77505857899999, -35.96692326699993], [-72.77546285899996, -35.9701507889999], [-72.77912732000001, -35.97055392499995], [-72.78019240899994, -35.97416241199991], [-72.78238734699991, -35.97626016799993], [-72.78490998499993, -35.9752517709999], [-72.78358555799994, -35.97742194899996], [-72.7859004969999, -35.978045354999935], [-72.78327695799999, -35.98041506999989], [-72.77583553399997, -36.006225990999965], [-72.77558151999992, -36.01122495799996], [-72.77806784999993, -36.01384730399995], [-72.77512018100002, -36.01123957399992], [-72.77243678699995, -36.01197984099998], [-72.77184831700002, -36.01077322299997], [-72.76814242099991, -36.010562014], [-72.76569557099995, -36.00572757499994], [-72.75962962399996, -36.00562267199996], [-72.74348353199994, -36.007883791], [-72.73156844899995, -36.01553810899996], [-72.720894592, -36.01937336699994], [-72.721432137, -36.02266999599995], [-72.71844573099997, -36.02421246299994], [-72.714447337, -36.02154423299997], [-72.70822642099998, -36.02320591599997], [-72.70466645799993, -36.017004192999934], [-72.69620902899996, -36.022051604999945], [-72.68975831499995, -36.01855576999998], [-72.68657355699995, -36.01876470599994], [-72.67976775399995, -36.02187920699998], [-72.67673888599998, -36.027760795999896], [-72.667762802, -36.03027953799993], [-72.66029674599997, -36.03617255999991], [-72.6563004619999, -36.04060487399992], [-72.65527689899994, -36.04695232499993], [-72.64681569899992, -36.016661754000026], [-72.644968041, -36.01497839599992], [-72.64021945499994, -36.020868933999964], [-72.635395137, -36.020825620000025], [-72.630585029, -36.025251459999936], [-72.63033165, -36.02898680899991], [-72.63318027499997, -36.028374879], [-72.63343038799997, -36.03127873999992], [-72.62836591699998, -36.03300515699995], [-72.6270896359999, -36.03156927099998], [-72.62365397199994, -36.03186991499999], [-72.62405342499994, -36.0352985929999], [-72.62150496399994, -36.03447229999992], [-72.619949214, -36.036048290999936], [-72.62175240699997, -36.038204524], [-72.62004634499996, -36.04094207399993], [-72.62298966699996, -36.04188605999997], [-72.62231261799997, -36.04420749599993], [-72.62392051999996, -36.04622189799998], [-72.62367757099993, -36.048852171], [-72.62020744599997, -36.05088608199998], [-72.62156724699994, -36.05253681099996], [-72.61984377399997, -36.05316798899996], [-72.61997140099997, -36.05545969499995], [-72.616317589, -36.05488122299996], [-72.61411652399994, -36.052867798], [-72.60694153099995, -36.05599858799995], [-72.60108362299994, -36.05675981799996], [-72.60233148199998, -36.059925677999985], [-72.59299759399997, -36.061788053999976], [-72.59214719499994, -36.065656055], [-72.58851463899995, -36.06528794499992], [-72.58747779899996, -36.06832815899995], [-72.59058678099998, -36.072087984999904], [-72.58321272700002, -36.077923465999916], [-72.58019899099997, -36.07509034899989], [-72.57185998199995, -36.07402788199992], [-72.54796864699998, -36.077879325], [-72.54393508799993, -36.07516848599997], [-72.54164463399997, -36.076237267999936], [-72.53677803899998, -36.069755513], [-72.530614376, -36.069487110999916], [-72.52407163199999, -36.07309721300001], [-72.52350525099993, -36.076181177], [-72.52052881799996, -36.077049118999966], [-72.518612107, -36.080120656], [-72.51211282299995, -36.080879089999954], [-72.50835023599994, -36.076360273], [-72.50371073299993, -36.07607651999996], [-72.500520254, -36.073166912], [-72.49274170199999, -36.07225506999996], [-72.48728786500001, -36.07758033699995], [-72.48725175199996, -36.07987343299997], [-72.49271177799992, -36.08600588799995], [-72.50144344700001, -36.08572472099996], [-72.49699662999996, -36.09451220099989], [-72.5004964359999, -36.09758171899993], [-72.50065980100001, -36.10017677799998], [-72.49961864700002, -36.102703059999925], [-72.49277979599994, -36.10706255799994], [-72.49094764599997, -36.12138919799997], [-72.48829313399997, -36.12367641999994], [-72.48849258699995, -36.12564648499996], [-72.489340092, -36.12741569799998], [-72.49469469099992, -36.12892334399993], [-72.49281651799996, -36.135347753], [-72.49825444699994, -36.13511083499994], [-72.49757349299992, -36.138536483999964], [-72.50148998999995, -36.14083978199994], [-72.50176219699992, -36.14335368799993], [-72.49341791599997, -36.146982301999955], [-72.48180602399995, -36.14966856], [-72.4779120109999, -36.15283166599997], [-72.47263957199993, -36.15219584899994], [-72.46970925699995, -36.148222967999935], [-72.46777612899996, -36.14799136999996], [-72.45280377399997, -36.15007568199993], [-72.44346678799997, -36.15597382199998], [-72.4322752969999, -36.15665897199992], [-72.43010244499997, -36.157977656999954], [-72.42636641999994, -36.15722175699994], [-72.42214587199996, -36.16321740999997], [-72.42154187999991, -36.169861991999966], [-72.40542690199996, -36.175586052], [-72.40131609799992, -36.17604363599993], [-72.39953377499998, -36.174336668], [-72.390235731, -36.17532395899998], [-72.38559471599996, -36.173797732], [-72.38184163199993, -36.170017227999935], [-72.37356986399996, -36.170000831], [-72.37084962899993, -36.163973492], [-72.35870610299997, -36.15743744799993], [-72.35207564699991, -36.167694432999944], [-72.34490257799999, -36.17354485299995], [-72.33844349299997, -36.17440652999993], [-72.33639430799997, -36.18008711200001], [-72.33778733599995, -36.20552727299995], [-72.36011614599994, -36.214844843999956], [-72.41220218699993, -36.20780766099998], [-72.41245273099997, -36.223086755999944], [-72.40945548999997, -36.22551747499998], [-72.40607393599996, -36.22589480899994], [-72.403782806, -36.22886887699999], [-72.4011955409999, -36.228434137], [-72.39951884999991, -36.23186760199995], [-72.39132585199995, -36.233847689], [-72.392355794, -36.23593407499997], [-72.38973936099995, -36.24201466299992], [-72.38753632199993, -36.24243520499991], [-72.38628847499999, -36.24501261099991], [-72.38932883199992, -36.24649404199991], [-72.389373731, -36.24844627899997], [-72.38022148499991, -36.25114365099995], [-72.38015360099998, -36.25417493899994], [-72.3763957199999, -36.25378608999992], [-72.37251059599997, -36.25717514799993], [-72.35128716999995, -36.24521562599992], [-72.34551977099997, -36.23688619699996], [-72.33397037599997, -36.233226949999974], [-72.31560627399992, -36.23268537099993], [-72.312410427, -36.23393391899994], [-72.29825462099998, -36.24723282199993], [-72.29578765399997, -36.253233456999936], [-72.29184351099994, -36.25525309099989], [-72.28917638799997, -36.25428687699997], [-72.28261223999998, -36.25636391699996], [-72.27836753499994, -36.25899361499994], [-72.27762102799991, -36.26148723599994], [-72.27160061199996, -36.25654566799999], [-72.26469699799995, -36.247293665], [-72.25486018199996, -36.233864416999964], [-72.2470006249999, -36.21780946699993], [-72.23730046099996, -36.20698008399999], [-72.22047138999991, -36.207925658999976], [-72.22353598899998, -36.215280083], [-72.21692769099997, -36.21540833699994], [-72.21618612999998, -36.21011388199993], [-72.21089792799995, -36.210935201999945], [-72.21111516, -36.21528885], [-72.19095781299998, -36.21970302099993], [-72.18597647899995, -36.2224195919999], [-72.18647399699998, -36.22581130099996], [-72.18332013999998, -36.228257110999905], [-72.16921550599994, -36.232677464], [-72.154283462, -36.23530306699998], [-72.15645994699996, -36.24126140899995], [-72.15206884399998, -36.24179810199995], [-72.152758138, -36.24755475200001], [-72.13910583599991, -36.24594799399994], [-72.142508772, -36.242729149999974], [-72.14242402900001, -36.239107292999975], [-72.13797894999993, -36.23529474699991], [-72.1380677459999, -36.23262283], [-72.13503952, -36.229196243999986], [-72.1363761069999, -36.22123504799995], [-72.13081084299995, -36.21729574799997], [-72.13170460099992, -36.203468012], [-72.12813000999992, -36.20065250799993], [-72.131309603, -36.19173244499996], [-72.12191123799991, -36.18694756299992], [-72.12103460799993, -36.183155745999976], [-72.119129964, -36.180242379999974], [-72.11504431999998, -36.178296476], [-72.11392248399997, -36.17413153199991], [-72.10575869199997, -36.16895489499996], [-72.10466445599994, -36.16386962799994], [-72.10115151199997, -36.16201090599998], [-72.10128116199995, -36.158768937999966], [-72.09862006699996, -36.156093223], [-72.09941296999992, -36.150557877999944], [-72.09777244099999, -36.14668449399991], [-72.09880174999998, -36.14492141199997], [-72.103322555, -36.14329782399992], [-72.10315627799994, -36.12328958499991], [-72.09844631699997, -36.125600618], [-72.100240361, -36.135432305999984], [-72.09907383099993, -36.13711782099991], [-72.09365932400001, -36.13584559599998], [-72.08825394799996, -36.13059252299993], [-72.0754264349999, -36.131150249999976], [-72.07244581000002, -36.13742990699998], [-72.07767792000003, -36.138560355999985], [-72.07909195499997, -36.14053531699997], [-72.07711808999997, -36.143976027], [-72.06915888899994, -36.14994805199994], [-72.07289552199992, -36.15138679799996], [-72.07275393599994, -36.156281066], [-72.06677064799995, -36.157497071999984], [-72.05928246799996, -36.15665163399993], [-72.03595641199996, -36.176317017], [-72.03152779899992, -36.17650752199995], [-72.0264674479999, -36.17381333799996], [-72.02351994599992, -36.174403841999975], [-72.02458331399998, -36.183493163], [-72.02044283999996, -36.189688358999945], [-72.01156402599995, -36.19156189099997], [-72.01252335799991, -36.19876631599992], [-72.00068983599994, -36.20303940199999], [-71.99732896099994, -36.20889616199999], [-71.99061821499998, -36.20867033399995], [-71.99064630999999, -36.21276398799991], [-71.999708411, -36.21694220299994], [-71.99928144200001, -36.227193933999956], [-71.99322628999994, -36.23145037599998], [-71.99223998599996, -36.24181973999996], [-71.98831207899994, -36.24216672199998], [-71.98263132599995, -36.23948929599996], [-71.98007268199999, -36.24017501699994], [-71.98103073899995, -36.25124211999993], [-71.9742987, -36.258644945999954], [-71.96618363299993, -36.25930265599993], [-71.96384786699993, -36.252363938999935], [-71.95645447299998, -36.25042212899994], [-71.95449522399996, -36.251765184999954], [-71.95441325400002, -36.254775979999934], [-71.94441776799997, -36.258597004999984], [-71.93844574699993, -36.258743916999975], [-71.93402210600003, -36.25697497999998], [-71.92075097099993, -36.25913248899997], [-71.9154701749999, -36.265097926], [-71.90909391699998, -36.268669341], [-71.90480837399997, -36.26610409299993], [-71.89873801199997, -36.26560299899995], [-71.89598218799995, -36.26159856], [-71.88814209399997, -36.26261699199998], [-71.88208734799994, -36.259007870999966], [-71.87253477599994, -36.25749589299991], [-71.86823088999991, -36.25361767000002], [-71.86709518999999, -36.247763081999935], [-71.863536879, -36.245925390999936], [-71.84684901799992, -36.24707918599992], [-71.848257329, -36.254284902999984], [-71.84507585899993, -36.25578562699998], [-71.83830587799997, -36.25449616099996], [-71.83380247599993, -36.25115517099993], [-71.82298294699993, -36.2560422949999], [-71.81596624099996, -36.25395080599996], [-71.81156015299999, -36.25475885399994], [-71.81134744799989, -36.259158055999954], [-71.80459815899994, -36.26271185300001], [-71.805457674, -36.26530026499995], [-71.80242424899993, -36.26911860399996], [-71.80360033799998, -36.272693334999964], [-71.79701779399997, -36.27522840899993], [-71.79630508099999, -36.27818486999995], [-71.79327876299996, -36.28007759399996], [-71.79415343799994, -36.28401524399989], [-71.79028083099998, -36.286810303999964], [-71.78630798399998, -36.29290343999998], [-71.77444885700001, -36.29674586599994], [-71.77442331699993, -36.30080667499993], [-71.76795506099997, -36.30373179399993], [-71.76788066999994, -36.30810411899994], [-71.76323162899995, -36.30841587399989], [-71.75992417699993, -36.311223637999944], [-71.75286539099994, -36.31374408699995], [-71.750895197, -36.31625679699992], [-71.73992203499998, -36.319722481999975], [-71.737237706, -36.324334473999926], [-71.732198691, -36.32542892399997], [-71.72860678799998, -36.33018753699997], [-71.72146184099998, -36.33408404299996], [-71.71426329599998, -36.342000039], [-71.7134477079999, -36.34515928099991], [-71.70779249599997, -36.348536816999946], [-71.70084109899992, -36.34823546799997], [-71.70104156699998, -36.353255928999964], [-71.69130784699992, -36.35452446899994], [-71.68781870899997, -36.35869951099997], [-71.68277443399995, -36.358900371999894], [-71.67923141999991, -36.36073863099993], [-71.67628564599998, -36.35990891699994], [-71.67281916099995, -36.36280503099994], [-71.66839632999994, -36.36222664199995], [-71.66407836299999, -36.3655129009999], [-71.65789060299994, -36.366262572000025], [-71.654248023, -36.370363669999975], [-71.64510710299997, -36.371276570999925], [-71.63936642499989, -36.374241818999955], [-71.62797711299999, -36.37202624199996], [-71.62323393499993, -36.377199411999975], [-71.61920547199995, -36.37652851399997], [-71.60983526099994, -36.380983], [-71.60817593499996, -36.38421489300001], [-71.60101241499993, -36.38574770299992], [-71.59749812199995, -36.3897568429999], [-71.58976196499997, -36.39278707999998], [-71.58297088200001, -36.392541004999956], [-71.57741683099994, -36.39783915899993], [-71.57542604099996, -36.40220806199992], [-71.57123956399997, -36.40434124399994], [-71.56384909999998, -36.402337190999944], [-71.55376490399996, -36.40431220899994], [-71.54874666599999, -36.40293376200002], [-71.54484817, -36.407288421], [-71.53434363699995, -36.40634304099993], [-71.52672022699997, -36.407138232], [-71.52233939399996, -36.40916449199996], [-71.51611671999996, -36.40479502399992], [-71.50630830699994, -36.410894341], [-71.50247837899995, -36.41548831399997], [-71.49436859199997, -36.415594305999946], [-71.47583805899993, -36.41189234799998], [-71.46724317300003, -36.41205963599997], [-71.46367278999993, -36.41618934499998], [-71.44994704499997, -36.42434217599997], [-71.44814874599996, -36.43017743299997], [-71.44169319699996, -36.430160711], [-71.43838190799991, -36.432953613999985], [-71.43803735599991, -36.452250121], [-71.4326946639999, -36.45416884299995], [-71.4307497149999, -36.46700423199996], [-71.42516635599998, -36.473079328], [-71.42493382199991, -36.47624204799993], [-71.41993889899999, -36.48037723199995], [-71.41697028499995, -36.492694774999926], [-71.41119414099995, -36.498185585999934], [-71.40981921199997, -36.503223035], [-71.39426140299994, -36.51008968499998], [-71.373532584, -36.510914154], [-71.36421758599994, -36.513227636999915], [-71.35283549499992, -36.512523012999964], [-71.34636620299995, -36.51940712899997], [-71.344776973, -36.53551026799991], [-71.338352216, -36.54327614499995], [-71.33020576899999, -36.54211709299997], [-71.32027593099995, -36.53197734899989], [-71.31927368799998, -36.52378529899994], [-71.3153289099999, -36.52150045799989], [-71.31538525799995, -36.514918129999984], [-71.31177459699998, -36.50537397199998], [-71.30851327699997, -36.50256004199994], [-71.30958994199997, -36.49879171], [-71.30782576300001, -36.496312162], [-71.30948268999998, -36.495151074999946], [-71.30694945499991, -36.48357886699991], [-71.30164528499998, -36.47977702599994], [-71.29544880799992, -36.47850103399997], [-71.29417290499995, -36.47449757600001], [-71.295836105, -36.47100115099991], [-71.293490585, -36.46697536299997], [-71.29379469499993, -36.46390106699997], [-71.28598019799995, -36.45906680900002], [-71.28152923999991, -36.44835576899992], [-71.27373600499992, -36.445236568999945], [-71.27005496299991, -36.440997226], [-71.26273018699995, -36.440039627], [-71.25989669699999, -36.44182084999994], [-71.25843179799992, -36.44745737299993], [-71.25528691499994, -36.45132529499995], [-71.24833658899996, -36.45596484399996], [-71.24704369499993, -36.45972089299996], [-71.23326724199995, -36.46585220899994], [-71.22492654499996, -36.46266649399996], [-71.22349242899995, -36.45470176299999], [-71.22075669799992, -36.451067167], [-71.21551366299997, -36.448719393], [-71.20839710199992, -36.44835514499996], [-71.19711656399994, -36.43837589000001], [-71.19698714199998, -36.41862010999992], [-71.19237563799999, -36.41287308399994], [-71.18828325199996, -36.40936396299995], [-71.18431702599997, -36.40920793399991], [-71.180449515, -36.40357727099997], [-71.17001704700002, -36.404312961999906], [-71.16380812700001, -36.400532417999926], [-71.15567158799995, -36.405564894999934], [-71.14429409199994, -36.38897707199995], [-71.14468520399998, -36.383884059], [-71.14026308300002, -36.37765516399993], [-71.11494198999998, -36.36189815999995], [-71.11276772499994, -36.36190437600003], [-71.09866043699994, -36.36994447999993], [-71.08231949999995, -36.36816805099994], [-71.07353492899992, -36.37853379399998], [-71.0664864459999, -36.379580822000015], [-71.05951752899998, -36.386877547999966], [-71.06424865199992, -36.39645235099994], [-71.06234478699997, -36.40669088999993], [-71.06496351500002, -36.409174762999925], [-71.06137813, -36.41928012599991], [-71.058134052, -36.42205568099997], [-71.06129980599992, -36.42749217100001], [-71.060261715, -36.43388226199991], [-71.063876061, -36.437888855999944], [-71.06253584699996, -36.440799499], [-71.06811868899995, -36.447866349000016], [-71.06596472799998, -36.45241226], [-71.05996421699999, -36.456245313999986], [-71.06067725099993, -36.46337217699991], [-71.05051848899996, -36.46793014], [-71.03879471899991, -36.469777168999975], [-71.03531106599996, -36.47423598099995]]]}}]}